[{"OBJECT_NAME":"STARLINK-35404","OBJECT_ID":"2025-253T","EPOCH":"2026-03-09T09:59:38.111712","MEAN_MOTION":15.2759481,"ECCENTRICITY":0.00011728,"INCLINATION":42.9989,"RA_OF_ASC_NODE":213.9611,"ARG_OF_PERICENTER":281.8139,"MEAN_ANOMALY":78.2581,"EPHEMERIS_TYPE":0,"CLASSIFICATION_TYPE":"U","NORAD_CAT_ID":66336,"ELEMENT_SET_NO":999,"REV_AT_EPOCH":2020,"BSTAR":0.0010355503,"MEAN_MOTION_DOT":0.00028356,"MEAN_MOTION_DDOT":0},{"OBJECT_NAME":"STARLINK-36554","OBJECT_ID":"2026-012K","EPOCH":"2026-03-08T17:06:15.871680","MEAN_MOTION":15.27591469,"ECCENTRICITY":6.955e-5,"INCLINATION":42.9934,"RA_OF_ASC_NODE":319.8184,"ARG_OF_PERICENTER":339.2059,"MEAN_ANOMALY":20.8765,"EPHEMERIS_TYPE":0,"CLASSIFICATION_TYPE":"U","NORAD_CAT_ID":67502,"ELEMENT_SET_NO":999,"REV_AT_EPOCH":761,"BSTAR":0.0011969118,"MEAN_MOTION_DOT":0.00032833,"MEAN_MOTION_DDOT":0}]
