STARLINK-35404          
1 66336U 25253T   26068.41641333  .00028356  00000+0  10356-2 0  9998
2 66336  42.9989 213.9611 0001172 281.8139  78.2581 15.27594810 20200
STARLINK-36554          
1 67502U 26012K   26067.71268370  .00032833  00000+0  11969-2 0  9992
2 67502  42.9934 319.8184 0000695 339.2059  20.8765 15.27591469  7619
